{"type": "FeatureCollection", "features": [ {"type": "Feature", "properties": {"norad_id": 66682, "name": "TRANSPORTER-15 S", "group": "last-30-days", "lat": 70.78366059390089, "lon": 43.54162068537902, "alt_km": 511.1176225404488, "timestamp": "2025-12-19T22:41:51.095812+00:00", "meta": {"OBJECT_NAME": "TRANSPORTER-15 S", "OBJECT_ID": "2025-276S", "EPOCH": "2025-12-19T11:17:56.656032", "MEAN_MOTION": 15.17073831, "ECCENTRICITY": 0.0004746, "INCLINATION": 97.4471, "RA_OF_ASC_NODE": 65.1162, "ARG_OF_PERICENTER": 254.2477, "MEAN_ANOMALY": 105.8233, "EPHEMERIS_TYPE": 0, "CLASSIFICATION_TYPE": "U", "NORAD_CAT_ID": 66682, "ELEMENT_SET_NO": 999, "REV_AT_EPOCH": 314, "BSTAR": 0.00037415, "MEAN_MOTION_DOT": 7.346e-05, "MEAN_MOTION_DDOT": 0}, "tle": {"line1": "1 66682U 25276S   25353.47079463  .00007346  00000+0  37415-3 0  9990", "line2": "2 66682  97.4471  65.1162 0004746 254.2477 105.8233 15.17073831  3141"}}, "geometry": {"type": "Point", "coordinates": [43.54162068537902, 70.78366059390089]}}, {"type": "Feature", "properties": {"norad_id": 66683, "name": "TRANSPORTER-15 T", "group": "last-30-days", "lat": 67.68338743929051, "lon": 46.999331204775665, "alt_km": 511.5739064128147, "timestamp": "2025-12-19T22:41:51.095821+00:00", "meta": {"OBJECT_NAME": "TRANSPORTER-15 T", "OBJECT_ID": "2025-276T", "EPOCH": "2025-12-19T11:18:46.600416", "MEAN_MOTION": 15.16970051, "ECCENTRICITY": 0.0004607, "INCLINATION": 97.4463, "RA_OF_ASC_NODE": 65.1138, "ARG_OF_PERICENTER": 258.1451, "MEAN_ANOMALY": 101.9266, "EPHEMERIS_TYPE": 0, "CLASSIFICATION_TYPE": "U", "NORAD_CAT_ID": 66683, "ELEMENT_SET_NO": 999, "REV_AT_EPOCH": 314, "BSTAR": 0.00024249, "MEAN_MOTION_DOT": 4.722e-05, "MEAN_MOTION_DDOT": 0}, "tle": {"line1": "1 66683U 25276T   25353.47137269  .00004722  00000+0  24249-3 0  9996", "line2": "2 66683  97.4463  65.1138 0004607 258.1451 101.9266 15.16970051  3149"}}, "geometry": {"type": "Point", "coordinates": [46.999331204775665, 67.68338743929051]}}, {"type": "Feature", "properties": {"norad_id": 66684, "name": "TRANSPORTER-15 U", "group": "last-30-days", "lat": 79.84448209265189, "lon": 18.67108038863468, "alt_km": 509.7992963967281, "timestamp": "2025-12-19T22:41:51.095834+00:00", "meta": {"OBJECT_NAME": "TRANSPORTER-15 U", "OBJECT_ID": "2025-276U", "EPOCH": "2025-12-18T03:35:45.403584", "MEAN_MOTION": 15.17214477, "ECCENTRICITY": 0.00044213, "INCLINATION": 97.449, "RA_OF_ASC_NODE": 63.8272, "ARG_OF_PERICENTER": 261.298, "MEAN_ANOMALY": 98.7753, "EPHEMERIS_TYPE": 0, "CLASSIFICATION_TYPE": "U", "NORAD_CAT_ID": 66684, "ELEMENT_SET_NO": 999, "REV_AT_EPOCH": 294, "BSTAR": 0.00053836659, "MEAN_MOTION_DOT": 0.00010646, "MEAN_MOTION_DDOT": 0}, "tle": {"line1": "1 66684U 25276U   25352.14983106  .00010646  00000+0  53837-3 0  9996", "line2": "2 66684  97.4490  63.8272 0004421 261.2980  98.7753 15.17214477  2945"}}, "geometry": {"type": "Point", "coordinates": [18.67108038863468, 79.84448209265189]}}, {"type": "Feature", "properties": {"norad_id": 66685, "name": "TRANSPORTER-15 V", "group": "last-30-days", "lat": 82.44121318128013, "lon": -14.551351545232304, "alt_km": 508.98078181822257, "timestamp": "2025-12-19T22:41:51.095846+00:00", "meta": {"OBJECT_NAME": "TRANSPORTER-15 V", "OBJECT_ID": "2025-276V", "EPOCH": "2025-12-19T14:23:40.254144", "MEAN_MOTION": 15.17380939, "ECCENTRICITY": 0.0003974, "INCLINATION": 97.4431, "RA_OF_ASC_NODE": 65.2408, "ARG_OF_PERICENTER": 278.7845, "MEAN_ANOMALY": 81.2938, "EPHEMERIS_TYPE": 0, "CLASSIFICATION_TYPE": "U", "NORAD_CAT_ID": 66685, "ELEMENT_SET_NO": 999, "REV_AT_EPOCH": 316, "BSTAR": 0.00049331, "MEAN_MOTION_DOT": 9.795e-05, "MEAN_MOTION_DDOT": 0}, "tle": {"line1": "1 66685U 25276V   25353.59977146  .00009795  00000+0  49331-3 0  9991", "line2": "2 66685  97.4431  65.2408 0003974 278.7845  81.2938 15.17380939  3167"}}, "geometry": {"type": "Point", "coordinates": [-14.551351545232304, 82.44121318128013]}}, {"type": "Feature", "properties": {"norad_id": 66686, "name": "TRANSPORTER-15 W", "group": "last-30-days", "lat": 71.88915530335738, "lon": 42.0142939870242, "alt_km": 511.2521190781099, "timestamp": "2025-12-19T22:41:51.095857+00:00", "meta": {"OBJECT_NAME": "TRANSPORTER-15 W", "OBJECT_ID": "2025-276W", "EPOCH": "2025-12-19T11:17:34.507392", "MEAN_MOTION": 15.16958969, "ECCENTRICITY": 0.0004583, "INCLINATION": 97.4454, "RA_OF_ASC_NODE": 65.1162, "ARG_OF_PERICENTER": 263.0125, "MEAN_ANOMALY": 97.0587, "EPHEMERIS_TYPE": 0, "CLASSIFICATION_TYPE": "U", "NORAD_CAT_ID": 66686, "ELEMENT_SET_NO": 999, "REV_AT_EPOCH": 314, "BSTAR": 0.00015018, "MEAN_MOTION_DOT": 2.897e-05, "MEAN_MOTION_DDOT": 0}, "tle": {"line1": "1 66686U 25276W   25353.47053828  .00002897  00000+0  15018-3 0  9992", "line2": "2 66686  97.4454  65.1162 0004583 263.0125  97.0587 15.16958969  3140"}}, "geometry": {"type": "Point", "coordinates": [42.0142939870242, 71.88915530335738]}}, {"type": "Feature", "properties": {"norad_id": 66687, "name": "TRANSPORTER-15 X", "group": "last-30-days", "lat": 46.962380269689305, "lon": 57.50861294538172, "alt_km": 506.29101896141947, "timestamp": "2025-12-19T22:41:51.095867+00:00", "meta": {"OBJECT_NAME": "TRANSPORTER-15 X", "OBJECT_ID": "2025-276X", "EPOCH": "2025-12-19T03:29:15.187488", "MEAN_MOTION": 15.16623915, "ECCENTRICITY": 0.00084967, "INCLINATION": 97.4403, "RA_OF_ASC_NODE": 64.7687, "ARG_OF_PERICENTER": 65.7808, "MEAN_ANOMALY": 294.4312, "EPHEMERIS_TYPE": 0, "CLASSIFICATION_TYPE": "U", "NORAD_CAT_ID": 66687, "ELEMENT_SET_NO": 999, "REV_AT_EPOCH": 309, "BSTAR": 0.0002869943, "MEAN_MOTION_DOT": 5.549e-05, "MEAN_MOTION_DDOT": 0}, "tle": {"line1": "1 66687U 25276X   25353.14531467  .00005549  00000+0  28699-3 0  9993", "line2": "2 66687  97.4403  64.7687 0008496  65.7808 294.4312 15.16623915  3097"}}, "geometry": {"type": "Point", "coordinates": [57.50861294538172, 46.962380269689305]}}, {"type": "Feature", "properties": {"norad_id": 66688, "name": "TRANSPORTER-15 Y", "group": "last-30-days", "lat": 75.61956924782793, "lon": 34.916458657779955, "alt_km": 510.13133934353664, "timestamp": "2025-12-19T22:41:51.095877+00:00", "meta": {"OBJECT_NAME": "TRANSPORTER-15 Y", "OBJECT_ID": "2025-276Y", "EPOCH": "2025-12-19T11:16:30.076320", "MEAN_MOTION": 15.17036621, "ECCENTRICITY": 0.0003635, "INCLINATION": 97.4445, "RA_OF_ASC_NODE": 65.1123, "ARG_OF_PERICENTER": 264.2799, "MEAN_ANOMALY": 95.8019, "EPHEMERIS_TYPE": 0, "CLASSIFICATION_TYPE": "U", "NORAD_CAT_ID": 66688, "ELEMENT_SET_NO": 999, "REV_AT_EPOCH": 314, "BSTAR": 0.00023695, "MEAN_MOTION_DOT": 4.621e-05, "MEAN_MOTION_DDOT": 0}, "tle": {"line1": "1 66688U 25276Y   25353.46979255  .00004621  00000+0  23695-3 0  9991", "line2": "2 66688  97.4445  65.1123 0003635 264.2799  95.8019 15.17036621  3145"}}, "geometry": {"type": "Point", "coordinates": [34.916458657779955, 75.61956924782793]}}, {"type": "Feature", "properties": {"norad_id": 66689, "name": "TRANSPORTER-15 Z", "group": "last-30-days", "lat": 81.25902083317227, "lon": -56.180495152955714, "alt_km": 507.8552626221126, "timestamp": "2025-12-19T22:41:51.095887+00:00", "meta": {"OBJECT_NAME": "TRANSPORTER-15 Z", "OBJECT_ID": "2025-276Z", "EPOCH": "2025-12-19T14:22:03.787680", "MEAN_MOTION": 15.17181025, "ECCENTRICITY": 0.0001369, "INCLINATION": 97.4426, "RA_OF_ASC_NODE": 65.243, "ARG_OF_PERICENTER": 288.6889, "MEAN_ANOMALY": 71.4196, "EPHEMERIS_TYPE": 0, "CLASSIFICATION_TYPE": "U", "NORAD_CAT_ID": 66689, "ELEMENT_SET_NO": 999, "REV_AT_EPOCH": 316, "BSTAR": 0.00010187, "MEAN_MOTION_DOT": 1.956e-05, "MEAN_MOTION_DDOT": 0}, "tle": {"line1": "1 66689U 25276Z   25353.59865495  .00001956  00000+0  10187-3 0  9996", "line2": "2 66689  97.4426  65.2430 0001369 288.6889  71.4196 15.17181025  3166"}}, "geometry": {"type": "Point", "coordinates": [-56.180495152955714, 81.25902083317227]}}, {"type": "Feature", "properties": {"norad_id": 66690, "name": "TRANSPORTER-15 AA", "group": "last-30-days", "lat": 75.50001464352319, "lon": 35.21526409275084, "alt_km": 510.1229579708979, "timestamp": "2025-12-19T22:41:51.095897+00:00", "meta": {"OBJECT_NAME": "TRANSPORTER-15 AA", "OBJECT_ID": "2025-276AA", "EPOCH": "2025-12-19T00:11:38.885280", "MEAN_MOTION": 15.17017224, "ECCENTRICITY": 0.00035531, "INCLINATION": 97.4408, "RA_OF_ASC_NODE": 64.6494, "ARG_OF_PERICENTER": 267.0809, "MEAN_ANOMALY": 93.0017, "EPHEMERIS_TYPE": 0, "CLASSIFICATION_TYPE": "U", "NORAD_CAT_ID": 66690, "ELEMENT_SET_NO": 999, "REV_AT_EPOCH": 307, "BSTAR": 0.0002351231, "MEAN_MOTION_DOT": 4.582e-05, "MEAN_MOTION_DDOT": 0}, "tle": {"line1": "1 66690U 25276AA  25353.00808895  .00004582  00000+0  23512-3 0  9999", "line2": "2 66690  97.4408  64.6494 0003553 267.0809  93.0017 15.17017224  3072"}}, "geometry": {"type": "Point", "coordinates": [35.21526409275084, 75.50001464352319]}}, {"type": "Feature", "properties": {"norad_id": 66691, "name": "TRANSPORTER-15 AB", "group": "last-30-days", "lat": 81.59796879253715, "lon": 3.312106443545666, "alt_km": 509.2508201294886, "timestamp": "2025-12-19T22:41:51.095910+00:00", "meta": {"OBJECT_NAME": "TRANSPORTER-15 AB", "OBJECT_ID": "2025-276AB", "EPOCH": "2025-12-19T14:24:18.484416", "MEAN_MOTION": 15.17236029, "ECCENTRICITY": 0.0003635, "INCLINATION": 97.4433, "RA_OF_ASC_NODE": 65.2403, "ARG_OF_PERICENTER": 264.9264, "MEAN_ANOMALY": 95.1554, "EPHEMERIS_TYPE": 0, "CLASSIFICATION_TYPE": "U", "NORAD_CAT_ID": 66691, "ELEMENT_SET_NO": 999, "REV_AT_EPOCH": 316, "BSTAR": 0.00034459, "MEAN_MOTION_DOT": 6.791e-05, "MEAN_MOTION_DDOT": 0}, "tle": {"line1": "1 66691U 25276AB  25353.60021394  .00006791  00000+0  34459-3 0  9993", "line2": "2 66691  97.4433  65.2403 0003635 264.9264  95.1554 15.17236029  3165"}}, "geometry": {"type": "Point", "coordinates": [3.312106443545666, 81.59796879253715]}}]}